{"type":"FeatureCollection","bbox":[-70.58449346699996,-33.465471296999965,-70.48638828199995,-33.42883680499993],"features":[{"type":"Feature","properties":{"CUT_REG":"13","CUT_PROV":"131","CUT_COM":"13113","REGION":"Metropolitana de Santiago","PROVINCIA":"Santiago","COMUNA":"La Reina","SUPERFICIE":23.39,"source":"SUBDERE / IDE Chile — DPA 2023","source_url":"https://geoportal.cl/geoportal/catalog/36391/Divisi%C3%B3n%20Pol%C3%ADtica%20Administrativa%202023","source_published":"2023-09-29","retrieved":"2026-10-06","original_crs":"EPSG:5360","output_crs":"EPSG:4326","circulation_authorization":"Resolución Nº50 de 2019, Dirección Nacional de Fronteras y Límites del Estado"},"geometry":{"type":"Polygon","coordinates":[[[-70.50024814899996,-33.46028982199994],[-70.48638828199995,-33.46061142099994],[-70.48653503399998,-33.46025685499995],[-70.48653678899996,-33.46025261499994],[-70.48697647699998,-33.45919027399997],[-70.48731658299994,-33.458696062999934],[-70.48805843999997,-33.45764889999998],[-70.48817085199994,-33.45658122499997],[-70.48884801199995,-33.45556136499994],[-70.48961421399997,-33.454778612999974],[-70.49019999999996,-33.454320000999935],[-70.49143617499993,-33.45376449999999],[-70.49320115399996,-33.45281958699996],[-70.49450790099996,-33.45163788999997],[-70.49491610299998,-33.45085920099996],[-70.49495476,-33.450457860999954],[-70.49485083999997,-33.449046511999946],[-70.49474446899995,-33.44749202299994],[-70.49510854899995,-33.44675785899994],[-70.49535999999995,-33.44624000099997],[-70.49580367399994,-33.44552260199998],[-70.49612519199997,-33.44519055199992],[-70.49636025399997,-33.44494778899996],[-70.49762711499994,-33.44363938899993],[-70.49899889699998,-33.442639715999974],[-70.49973053499997,-33.442179955999954],[-70.50073340799997,-33.44154973699995],[-70.50142066599994,-33.44113099799994],[-70.50192478699995,-33.44077330899995],[-70.50253999999995,-33.44004000099994],[-70.50348249899997,-33.43838390999996],[-70.50396794499994,-33.43777710199998],[-70.50447469199997,-33.437342945999944],[-70.50504808099998,-33.43692556899998],[-70.50603285599993,-33.436598639999936],[-70.50690512699998,-33.436349426999975],[-70.50835937399995,-33.43607101299995],[-70.50933288099998,-33.43586175799993],[-70.50973482699999,-33.43578308799994],[-70.50990277899996,-33.435750215999974],[-70.50995688699999,-33.43573962499994],[-70.51068152499994,-33.43554193299997],[-70.51155640099995,-33.43529354799993],[-70.51192668699997,-33.435273001999974],[-70.51196951499998,-33.43527062599999],[-70.51272689199993,-33.43522859799997],[-70.51337165199993,-33.43505850699996],[-70.51360846799997,-33.43501033099993],[-70.51362642499998,-33.43500667799997],[-70.51412034499998,-33.43490619799994],[-70.51470919799993,-33.43472720299996],[-70.51536336699996,-33.43453545399996],[-70.51537695799995,-33.43453146999996],[-70.51552468099999,-33.43448816899996],[-70.51610214599998,-33.434309306999985],[-70.51670154199996,-33.43408245099994],[-70.51711588299997,-33.433956957999946],[-70.51711880599998,-33.433956072999926],[-70.51768673599997,-33.433784058999954],[-70.51827667399994,-33.433585827999934],[-70.51856905599993,-33.43349542499993],[-70.51880237599994,-33.43337795099995],[-70.51882236399996,-33.43336788699998],[-70.51885537899994,-33.433370316999984],[-70.51886133299998,-33.43337222399998],[-70.51892879299999,-33.433393830999925],[-70.51904323999997,-33.43344862599997],[-70.51916603099994,-33.433548414999954],[-70.51921274699998,-33.43358086199992],[-70.51922733399994,-33.43359099399993],[-70.51923035799996,-33.43359309499994],[-70.51923953599999,-33.43359946899994],[-70.51925412299994,-33.433609600999944],[-70.51926653899994,-33.433618224999975],[-70.51928112599997,-33.433628356999975],[-70.51930507699996,-33.433644991999984],[-70.51930600799994,-33.43364563899996],[-70.51930600799994,-33.433645551999966],[-70.51930600599997,-33.43364500399997],[-70.51930600499998,-33.43364471899997],[-70.51930600499998,-33.43364467999993],[-70.51930600299994,-33.43364464099994],[-70.51930597799998,-33.433644218999966],[-70.51930576199999,-33.43364084399996],[-70.51929757499994,-33.433513107999936],[-70.51929787399996,-33.43350686699995],[-70.51930247299998,-33.43341082099994],[-70.51932961499995,-33.43333906899994],[-70.51937198199994,-33.433278333999965],[-70.51938484299995,-33.433266304999954],[-70.51943114499994,-33.43322299499993],[-70.51945465399996,-33.433209105999936],[-70.51951648899997,-33.43317257599995],[-70.51965411699996,-33.43311638599994],[-70.52006263899995,-33.432949594999975],[-70.52058602199997,-33.432735908999966],[-70.52082257699993,-33.43265024999994],[-70.52112866099998,-33.43255643599998],[-70.52139137899997,-33.43247288899993],[-70.52155263999998,-33.43239788899996],[-70.52176247599994,-33.43227847899993],[-70.52200671599996,-33.432134306999956],[-70.52223678299998,-33.43200977999994],[-70.52232749599995,-33.43196186099994],[-70.52259058999995,-33.43182288199995],[-70.52291728599994,-33.431652531999916],[-70.52295864199994,-33.431633986999934],[-70.52300033299997,-33.43161543799994],[-70.52312530499997,-33.43162012399995],[-70.52342259899996,-33.431657723999926],[-70.52360599499997,-33.43168166799995],[-70.52402491899994,-33.43172998399996],[-70.52423055599996,-33.43173740499997],[-70.52737301899998,-33.43211551799992],[-70.52967382299994,-33.43240121799994],[-70.53125033099997,-33.43260038599993],[-70.53285979799995,-33.43280292799993],[-70.53488083399998,-33.43305363199994],[-70.53801808799994,-33.433439421999935],[-70.53874248099999,-33.432075106999946],[-70.53892435299997,-33.43157653299993],[-70.53908194499996,-33.43099235899995],[-70.53919614099993,-33.43036815899995],[-70.53921981499997,-33.429935973999925],[-70.53922715599998,-33.42938468399995],[-70.53921891999994,-33.429079360999935],[-70.53915203099996,-33.42883680499993],[-70.54147855799994,-33.42908469799993],[-70.55068395399996,-33.43012647199998],[-70.55144380399997,-33.430197774999954],[-70.55226089499996,-33.43026835599994],[-70.55348671899998,-33.430411417999935],[-70.55448432899993,-33.430491723999985],[-70.55503674399995,-33.43049852399997],[-70.55656399799994,-33.430572044999955],[-70.55853992899995,-33.43066723599998],[-70.55901958599998,-33.430703609999966],[-70.56063325099996,-33.430768833999934],[-70.56272284999994,-33.43086501199996],[-70.563703564,-33.43090705299994],[-70.56499566499997,-33.43096675899994],[-70.56544527799997,-33.43097708499994],[-70.56621773799998,-33.43100573399994],[-70.56692514199995,-33.431024798999935],[-70.56764108799996,-33.431041351999966],[-70.56845933999995,-33.431069407999935],[-70.56941298599997,-33.43109174499995],[-70.57020421099998,-33.431102529999954],[-70.57096629499995,-33.43113768099995],[-70.57212079699997,-33.43118625399995],[-70.57280348399996,-33.43121039899995],[-70.573358339,-33.43123616299992],[-70.57409632899999,-33.43125799999995],[-70.57486740599995,-33.431262609999976],[-70.57723236699997,-33.431340559999974],[-70.578099868,-33.43134792399996],[-70.57866502899998,-33.43136313199994],[-70.57950152699993,-33.43139728299996],[-70.57957897299997,-33.431405896999934],[-70.57966140699995,-33.43142644899996],[-70.57972841699996,-33.431438395999976],[-70.57977620299994,-33.43144258799999],[-70.58010000799999,-33.43146086399996],[-70.58076600599998,-33.43151157999995],[-70.58194472699995,-33.43157975399998],[-70.58295534499996,-33.43163886299993],[-70.58369818099999,-33.43166457999995],[-70.58401241899998,-33.43168136799995],[-70.58417696899994,-33.43170486799994],[-70.58449346699996,-33.431765905999946],[-70.58443001899997,-33.431849710999984],[-70.58406140199997,-33.43230675999995],[-70.58370151499997,-33.432716296999956],[-70.58328665799996,-33.43307943399998],[-70.58295325199998,-33.43334136399995],[-70.58226004899996,-33.433795387999965],[-70.58089589399998,-33.43459822599994],[-70.57962304399996,-33.43531345399998],[-70.57866435099999,-33.435811968999914],[-70.57811549999997,-33.43607341199992],[-70.57750017799998,-33.43625951999996],[-70.57680779399993,-33.436403619999965],[-70.57636901999996,-33.43654950299998],[-70.57586058399994,-33.436762126999945],[-70.57504378699997,-33.43710894899992],[-70.57444319399997,-33.437419374999926],[-70.57392879799994,-33.43768074399998],[-70.573527207,-33.437900591999956],[-70.57340378099997,-33.43817369899994],[-70.57329314899994,-33.43850915999997],[-70.57312378899996,-33.43921760099994],[-70.57296663199998,-33.440256015999985],[-70.57272117599996,-33.441669328999986],[-70.57253681099998,-33.44272014099993],[-70.57232304799999,-33.44391682599996],[-70.57208503799995,-33.445261215999935],[-70.57184497799994,-33.44661799499994],[-70.57163133199998,-33.447803972999964],[-70.57143537099995,-33.448973647999935],[-70.57127871499995,-33.449964441999946],[-70.57118251299994,-33.45058071199998],[-70.57097631099998,-33.451354289999976],[-70.57086787299994,-33.45207969299997],[-70.57077050399994,-33.452961744999996],[-70.57076363299996,-33.453366324999934],[-70.57096871199997,-33.45424904099996],[-70.57108026499998,-33.454708765999946],[-70.57138380599997,-33.45571284099997],[-70.57154877399995,-33.456306032999976],[-70.57170124699996,-33.45695462799995],[-70.57188245299994,-33.45766804999993],[-70.57228729999997,-33.458888897999934],[-70.57233246199996,-33.459013692999974],[-70.57172695099996,-33.45919739499994],[-70.57147881299994,-33.45927643299995],[-70.57089894499995,-33.45947356799995],[-70.57035944399996,-33.45965794399995],[-70.56925436999995,-33.46009099199995],[-70.56867471899994,-33.46031746899996],[-70.56813825999996,-33.46051690299998],[-70.56753308399995,-33.46073612899994],[-70.56640862299997,-33.461128316999975],[-70.56550297099994,-33.46144209999995],[-70.56445865999996,-33.46181419699997],[-70.56337401799993,-33.46217400899997],[-70.56282676299998,-33.462355626999965],[-70.56252632599995,-33.46245533899997],[-70.56229670199998,-33.46251145499997],[-70.56208668299996,-33.462545587999955],[-70.56204953799994,-33.46254704499995],[-70.56192500399999,-33.462551929999954],[-70.56047817999996,-33.46256795599993],[-70.55975168299994,-33.46257154699997],[-70.55862449199998,-33.46257972599993],[-70.55804948999997,-33.46258493299996],[-70.55767945299993,-33.46258745199997],[-70.55735834299998,-33.46258963799994],[-70.55703517299997,-33.462591156999956],[-70.55634837799994,-33.462593541999986],[-70.55569596199996,-33.46259935499995],[-70.55549678299997,-33.46260060899994],[-70.55485226899998,-33.46260462099996],[-70.55455392299996,-33.462606396999945],[-70.55378428799997,-33.46261096799997],[-70.55349276599998,-33.462613560999955],[-70.55334476399997,-33.46261532699997],[-70.55288822299997,-33.46262077199999],[-70.55251023999995,-33.46262546899993],[-70.55207989099995,-33.462630858999944],[-70.55176794399995,-33.462634763999965],[-70.55165065899996,-33.462636730999975],[-70.55154484899998,-33.46263892299993],[-70.55142189899993,-33.46264146999994],[-70.55113275899998,-33.46264745899998],[-70.55101000099995,-33.46265000099993],[-70.55098275399996,-33.46265430299996],[-70.55055267599994,-33.46273178999995],[-70.54798954899996,-33.46316801199998],[-70.54524999999995,-33.46352000199993],[-70.54482377399995,-33.463582550999945],[-70.54438851399993,-33.46364681099992],[-70.54423254099999,-33.46364875499995],[-70.54413340899998,-33.46364201599992],[-70.54399926899998,-33.46361558799999],[-70.54379174299999,-33.46353995999993],[-70.54336370599998,-33.46334888399996],[-70.54250506799997,-33.462965899999965],[-70.54245993399996,-33.46294577899994],[-70.54231880799995,-33.462907808999944],[-70.54220844499997,-33.46288452199997],[-70.54203203399999,-33.462864494999955],[-70.54178999999993,-33.46287000099994],[-70.54146227699994,-33.462875992999955],[-70.54009219999995,-33.46299595299996],[-70.53936038999996,-33.463197673999964],[-70.53884472199996,-33.463344055999976],[-70.53844371999998,-33.46346080299996],[-70.53732436199994,-33.46378114899994],[-70.53675078899994,-33.46394877399995],[-70.53646901199994,-33.46402786199997],[-70.53595761499997,-33.46417252599997],[-70.53581369699998,-33.46422213499995],[-70.53566758299996,-33.46424915599994],[-70.53438713899999,-33.46461857999997],[-70.53342157099996,-33.46488261099995],[-70.53137882299995,-33.465471296999965],[-70.53097010099998,-33.46465909799996],[-70.53085642599996,-33.46443320299993],[-70.53075648499998,-33.46412311599994],[-70.53072512899996,-33.46391648399999],[-70.53061779699993,-33.46243804199997],[-70.53056477999996,-33.46217777199996],[-70.53026168499997,-33.46112444299997],[-70.52988646099993,-33.45982076999996],[-70.52965226999999,-33.45923917499993],[-70.52956417599995,-33.45919438599998],[-70.52933890199996,-33.45917937299998],[-70.52233895399998,-33.45957268199994],[-70.52194485299998,-33.45960009099997],[-70.52162544599997,-33.459624473999945],[-70.52135738699997,-33.45963062799996],[-70.52111185299998,-33.459655115999965],[-70.52097217999994,-33.459702235999934],[-70.520840358,-33.459762886999954],[-70.51823680799998,-33.459829698999954],[-70.50024814899996,-33.46028982199994]]]}}]}
